
# G03 (GNSS)
1 40294U 14068A   25332.99753672 -.00000060  00000+0  00000+0 0  9996
2 40294  56.8470  38.6778 0060852  69.4861 291.2145  2.00563936 81192

# G06 (GNSS)
1 39741U 14026A   25333.03200546 -.00000048  00000+0  00000+0 0  9994
2 39741  56.5886 339.3100 0038777 317.9749  41.7627  2.00562236 84527

# G08 (GNSS)
1 40730U 15033A   25332.79049903 -.00000032  00000+0  00000+0 0  9996
2 40730  54.1429 275.3470 0110095  26.4688 334.0941  2.00566196 75976

# G09 (GNSS)
1 40105U 14045A   25333.61890492  .00000033  00000+0  00000+0 0  9993
2 40105  55.2207  96.4226 0032979 119.5514 240.7660  2.00571660 82077

# G10 (GNSS)
1 41019U 15062A   25332.84982260 -.00000060  00000+0  00000+0 0  9998
2 41019  56.8221  38.5398 0110404 229.5670 129.5137  2.00567008 73813

# G26 (GNSS)
1 40534U 15013A   25333.12766292  .00000048  00000+0  00000+0 0  9997
2 40534  53.2001 212.4540 0106443  38.1452 322.6861  2.00563167 77819

# G30 (GNSS)
1 39533U 14008A   25333.24836925  .00000123  00000+0  00000+0 0  9995
2 39533  53.6290 157.4751 0078883 226.3092 133.0820  2.00573621 85677

# G32 (GNSS)
1 41328U 16007A   25332.93204905  .00000041  00000+0  00000+0 0  9992
2 41328  55.3982  97.4052 0091496 243.2365 115.8161  2.00561412 71825
