{
  "type": "FeatureCollection",
  "features": [
    {
      "type": "Feature",
      "properties": {
        "OBJECT_NAME": "GPS BIIF-5  (PRN 30)",
        "OBJECT_ID": "2014-008A",
        "EPOCH": "2025-11-29T05:57:39.103200",
        "MEAN_MOTION": 2.00573621,
        "ECCENTRICITY": 0.0078883,
        "INCLINATION": 53.629,
        "RA_OF_ASC_NODE": 157.4751,
        "ARG_OF_PERICENTER": 226.3092,
        "MEAN_ANOMALY": 133.082,
        "EPHEMERIS_TYPE": 0,
        "CLASSIFICATION_TYPE": "U",
        "NORAD_CAT_ID": 39533,
        "ELEMENT_SET_NO": 999,
        "REV_AT_EPOCH": 8567,
        "BSTAR": 0,
        "MEAN_MOTION_DOT": 1.23e-06,
        "MEAN_MOTION_DDOT": 0,
        "norad_id": 39533,
        "name": "GPS BIIF-5  (PRN 30)",
        "group": "gps-ops",
        "longitude_deg": NaN,
        "latitude_deg": NaN,
        "alt_km": NaN,
        "orbit_class": "HEO",
        "timestamp": "2025-11-30T04:58:49.602525+00:00"
      },
      "geometry": {
        "type": "Point",
        "coordinates": [
          NaN,
          NaN
        ]
      }
    },
    {
      "type": "Feature",
      "properties": {
        "OBJECT_NAME": "GPS BIIF-6  (PRN 06)",
        "OBJECT_ID": "2014-026A",
        "EPOCH": "2025-11-29T00:46:05.271744",
        "MEAN_MOTION": 2.00562236,
        "ECCENTRICITY": 0.00387773,
        "INCLINATION": 56.5886,
        "RA_OF_ASC_NODE": 339.31,
        "ARG_OF_PERICENTER": 317.9749,
        "MEAN_ANOMALY": 41.7627,
        "EPHEMERIS_TYPE": 0,
        "CLASSIFICATION_TYPE": "U",
        "NORAD_CAT_ID": 39741,
        "ELEMENT_SET_NO": 999,
        "REV_AT_EPOCH": 8452,
        "BSTAR": 0,
        "MEAN_MOTION_DOT": -4.8e-07,
        "MEAN_MOTION_DDOT": 0,
        "norad_id": 39741,
        "name": "GPS BIIF-6  (PRN 06)",
        "group": "gps-ops",
        "longitude_deg": NaN,
        "latitude_deg": NaN,
        "alt_km": NaN,
        "orbit_class": "HEO",
        "timestamp": "2025-11-30T04:58:49.602612+00:00"
      },
      "geometry": {
        "type": "Point",
        "coordinates": [
          NaN,
          NaN
        ]
      }
    },
    {
      "type": "Feature",
      "properties": {
        "OBJECT_NAME": "GPS BIIF-7  (PRN 09)",
        "OBJECT_ID": "2014-045A",
        "EPOCH": "2025-11-29T14:51:13.385088",
        "MEAN_MOTION": 2.0057166,
        "ECCENTRICITY": 0.0032979,
        "INCLINATION": 55.2207,
        "RA_OF_ASC_NODE": 96.4226,
        "ARG_OF_PERICENTER": 119.5514,
        "MEAN_ANOMALY": 240.766,
        "EPHEMERIS_TYPE": 0,
        "CLASSIFICATION_TYPE": "U",
        "NORAD_CAT_ID": 40105,
        "ELEMENT_SET_NO": 999,
        "REV_AT_EPOCH": 8207,
        "BSTAR": 0,
        "MEAN_MOTION_DOT": 3.3e-07,
        "MEAN_MOTION_DDOT": 0,
        "norad_id": 40105,
        "name": "GPS BIIF-7  (PRN 09)",
        "group": "gps-ops",
        "longitude_deg": NaN,
        "latitude_deg": NaN,
        "alt_km": NaN,
        "orbit_class": "HEO",
        "timestamp": "2025-11-30T04:58:49.602928+00:00"
      },
      "geometry": {
        "type": "Point",
        "coordinates": [
          NaN,
          NaN
        ]
      }
    },
    {
      "type": "Feature",
      "properties": {
        "OBJECT_NAME": "GPS BIIF-8  (PRN 03)",
        "OBJECT_ID": "2014-068A",
        "EPOCH": "2025-11-28T23:56:27.172608",
        "MEAN_MOTION": 2.00563936,
        "ECCENTRICITY": 0.00608524,
        "INCLINATION": 56.847,
        "RA_OF_ASC_NODE": 38.6778,
        "ARG_OF_PERICENTER": 69.4861,
        "MEAN_ANOMALY": 291.2145,
        "EPHEMERIS_TYPE": 0,
        "CLASSIFICATION_TYPE": "U",
        "NORAD_CAT_ID": 40294,
        "ELEMENT_SET_NO": 999,
        "REV_AT_EPOCH": 8119,
        "BSTAR": 0,
        "MEAN_MOTION_DOT": -6e-07,
        "MEAN_MOTION_DDOT": 0,
        "norad_id": 40294,
        "name": "GPS BIIF-8  (PRN 03)",
        "group": "gps-ops",
        "longitude_deg": NaN,
        "latitude_deg": NaN,
        "alt_km": NaN,
        "orbit_class": "HEO",
        "timestamp": "2025-11-30T04:58:49.603117+00:00"
      },
      "geometry": {
        "type": "Point",
        "coordinates": [
          NaN,
          NaN
        ]
      }
    },
    {
      "type": "Feature",
      "properties": {
        "OBJECT_NAME": "GPS BIIF-9  (PRN 26)",
        "OBJECT_ID": "2015-013A",
        "EPOCH": "2025-11-29T03:03:50.076288",
        "MEAN_MOTION": 2.00563167,
        "ECCENTRICITY": 0.01064439,
        "INCLINATION": 53.2001,
        "RA_OF_ASC_NODE": 212.454,
        "ARG_OF_PERICENTER": 38.1452,
        "MEAN_ANOMALY": 322.6861,
        "EPHEMERIS_TYPE": 0,
        "CLASSIFICATION_TYPE": "U",
        "NORAD_CAT_ID": 40534,
        "ELEMENT_SET_NO": 999,
        "REV_AT_EPOCH": 7781,
        "BSTAR": 0,
        "MEAN_MOTION_DOT": 4.8e-07,
        "MEAN_MOTION_DDOT": 0,
        "norad_id": 40534,
        "name": "GPS BIIF-9  (PRN 26)",
        "group": "gps-ops",
        "longitude_deg": NaN,
        "latitude_deg": NaN,
        "alt_km": NaN,
        "orbit_class": "HEO",
        "timestamp": "2025-11-30T04:58:49.603322+00:00"
      },
      "geometry": {
        "type": "Point",
        "coordinates": [
          NaN,
          NaN
        ]
      }
    },
    {
      "type": "Feature",
      "properties": {
        "OBJECT_NAME": "GPS BIIF-10 (PRN 08)",
        "OBJECT_ID": "2015-033A",
        "EPOCH": "2025-11-28T18:58:19.116192",
        "MEAN_MOTION": 2.00566196,
        "ECCENTRICITY": 0.01100954,
        "INCLINATION": 54.1429,
        "RA_OF_ASC_NODE": 275.347,
        "ARG_OF_PERICENTER": 26.4688,
        "MEAN_ANOMALY": 334.0941,
        "EPHEMERIS_TYPE": 0,
        "CLASSIFICATION_TYPE": "U",
        "NORAD_CAT_ID": 40730,
        "ELEMENT_SET_NO": 999,
        "REV_AT_EPOCH": 7597,
        "BSTAR": 0,
        "MEAN_MOTION_DOT": -3.2e-07,
        "MEAN_MOTION_DDOT": 0,
        "norad_id": 40730,
        "name": "GPS BIIF-10 (PRN 08)",
        "group": "gps-ops",
        "longitude_deg": NaN,
        "latitude_deg": NaN,
        "alt_km": NaN,
        "orbit_class": "HEO",
        "timestamp": "2025-11-30T04:58:49.603443+00:00"
      },
      "geometry": {
        "type": "Point",
        "coordinates": [
          NaN,
          NaN
        ]
      }
    },
    {
      "type": "Feature",
      "properties": {
        "OBJECT_NAME": "GPS BIIF-11 (PRN 10)",
        "OBJECT_ID": "2015-062A",
        "EPOCH": "2025-11-28T20:23:44.672640",
        "MEAN_MOTION": 2.00567008,
        "ECCENTRICITY": 0.01104043,
        "INCLINATION": 56.8221,
        "RA_OF_ASC_NODE": 38.5398,
        "ARG_OF_PERICENTER": 229.567,
        "MEAN_ANOMALY": 129.5137,
        "EPHEMERIS_TYPE": 0,
        "CLASSIFICATION_TYPE": "U",
        "NORAD_CAT_ID": 41019,
        "ELEMENT_SET_NO": 999,
        "REV_AT_EPOCH": 7381,
        "BSTAR": 0,
        "MEAN_MOTION_DOT": -6e-07,
        "MEAN_MOTION_DDOT": 0,
        "norad_id": 41019,
        "name": "GPS BIIF-11 (PRN 10)",
        "group": "gps-ops",
        "longitude_deg": NaN,
        "latitude_deg": NaN,
        "alt_km": NaN,
        "orbit_class": "HEO",
        "timestamp": "2025-11-30T04:58:49.603725+00:00"
      },
      "geometry": {
        "type": "Point",
        "coordinates": [
          NaN,
          NaN
        ]
      }
    },
    {
      "type": "Feature",
      "properties": {
        "OBJECT_NAME": "GPS BIIF-12 (PRN 32)",
        "OBJECT_ID": "2016-007A",
        "EPOCH": "2025-11-28T22:22:09.037920",
        "MEAN_MOTION": 2.00561412,
        "ECCENTRICITY": 0.00914967,
        "INCLINATION": 55.3982,
        "RA_OF_ASC_NODE": 97.4052,
        "ARG_OF_PERICENTER": 243.2365,
        "MEAN_ANOMALY": 115.8161,
        "EPHEMERIS_TYPE": 0,
        "CLASSIFICATION_TYPE": "U",
        "NORAD_CAT_ID": 41328,
        "ELEMENT_SET_NO": 999,
        "REV_AT_EPOCH": 7182,
        "BSTAR": 0,
        "MEAN_MOTION_DOT": 4.1e-07,
        "MEAN_MOTION_DDOT": 0,
        "norad_id": 41328,
        "name": "GPS BIIF-12 (PRN 32)",
        "group": "gps-ops",
        "longitude_deg": NaN,
        "latitude_deg": NaN,
        "alt_km": NaN,
        "orbit_class": "HEO",
        "timestamp": "2025-11-30T04:58:49.603922+00:00"
      },
      "geometry": {
        "type": "Point",
        "coordinates": [
          NaN,
          NaN
        ]
      }
    }
  ]
}